{
    "links": {
        "self": "http://www.neowsapp.com/rest/v1/neo/3375501?api_key=iIulBulltgU6a56xZRHN4H3l9WmuAYTsLGpBGhQ2"
    },
    "id": "3375501",
    "neo_reference_id": "3375501",
    "name": "(2007 HZ58)",
    "designation": "2007 HZ58",
    "nasa_jpl_url": "http://ssd.jpl.nasa.gov/sbdb.cgi?sstr=3375501",
    "absolute_magnitude_h": 24.9,
    "estimated_diameter": {
        "kilometers": {
            "estimated_diameter_min": 0.0278326768,
            "estimated_diameter_max": 0.0622357573
        },
        "meters": {
            "estimated_diameter_min": 27.8326768072,
            "estimated_diameter_max": 62.2357573367
        },
        "miles": {
            "estimated_diameter_min": 0.0172944182,
            "estimated_diameter_max": 0.0386714948
        },
        "feet": {
            "estimated_diameter_min": 91.3145593761,
            "estimated_diameter_max": 204.1855621004
        }
    },
    "is_potentially_hazardous_asteroid": false,
    "close_approach_data": [
        {
            "close_approach_date": "2007-05-03",
            "close_approach_date_full": "2007-May-03 19:37",
            "epoch_date_close_approach": 1178221020000,
            "relative_velocity": {
                "kilometers_per_second": "11.1237967327",
                "kilometers_per_hour": "40045.6682378294",
                "miles_per_hour": "24882.8209114446"
            },
            "miss_distance": {
                "astronomical": "0.0598101579",
                "lunar": "23.2661514231",
                "kilometers": "8947472.226203673",
                "miles": "5559701.4345817674"
            },
            "orbiting_body": "Earth"
        }
    ],
    "orbital_data": {
        "orbit_id": "7",
        "orbit_determination_date": "2017-04-06 09:06:29",
        "first_observation_date": "2007-04-24",
        "last_observation_date": "2007-04-27",
        "data_arc_in_days": 3,
        "observations_used": 35,
        "orbit_uncertainty": "8",
        "minimum_orbit_intersection": ".0519847",
        "jupiter_tisserand_invariant": "3.549",
        "epoch_osculation": "2454215.5",
        "eccentricity": ".5377805430828707",
        "semi_major_axis": "2.092955311837285",
        "inclination": "6.549710554337746",
        "ascending_node_longitude": "202.8435052540597",
        "orbital_period": "1105.957301415616",
        "perihelion_distance": ".9674046675892507",
        "perihelion_argument": "58.43442302109082",
        "aphelion_distance": "3.218505956085319",
        "perihelion_time": "2454254.365843830488",
        "mean_anomaly": "347.3487848391015",
        "mean_motion": ".3255098542585714",
        "equinox": "J2000",
        "orbit_class": {
            "orbit_class_type": "APO",
            "orbit_class_description": "Near-Earth asteroid orbits which cross the Earth’s orbit similar to that of 1862 Apollo",
            "orbit_class_range": "a (semi-major axis) > 1.0 AU; q (perihelion) < 1.017 AU"
        }
    },
    "is_sentry_object": false
}